NORAD_CAT_ID,OBJECT_NAME,OBJECT_TYPE,EPOCH,MEAN_MOTION,ECCENTRICITY,INCLINATION,RA_OF_ASC_NODE,ARG_OF_PERICENTER,MEAN_ANOMALY,BSTAR,MEAN_MOTION_DOT,MEAN_MOTION_DDOT,TLE_LINE0,TLE_LINE1,TLE_LINE2,SEMIMAJOR_AXIS,PERIOD,APOGEE,PERIGEE,DECAYED
55434.0,STARLINK-5621,PAYLOAD,2024-03-10 21:47:10,14.98339842,0.0002831,70.0021,142.0015,267.7918,92.2917,-0.00019652,-2.438e-05,0.0,0 STARLINK-5621,1 55434U 23014AV  24070.90776115 -.00002438  00000-0 -19652-3 0  9995,2 55434  70.0021 142.0015 0002831 267.7918  92.2917 14.98339842 61907,6950.162,96.106,573.995,570.06,0.0
55434.0,STARLINK-5621,PAYLOAD,2024-03-11 04:11:43,14.98333327,0.0002803,70.0021,141.3289,262.9936,97.0904,4.7034e-05,4.68e-06,0.0,0 STARLINK-5621,1 55434U 23014AV  24071.17480650  .00000468  00000-0  47034-4 0  9996,2 55434  70.0021 141.3289 0002803 262.9936  97.0904 14.98333327 61000,6950.183,96.107,573.996,570.099,0.0
55434.0,STARLINK-5621,PAYLOAD,2024-03-11 12:12:23,14.98328527,0.0002856,70.0017,140.487,261.7563,98.3272,9.497e-05,1.04e-05,0.0,0 STARLINK-5621,1 55434U 23014AV  24071.50860912  .00001040  00000-0  94970-4 0  9994,2 55434  70.0017 140.4870 0002856 261.7563  98.3272 14.98328527 61998,6950.197,96.107,574.047,570.077,0.0
55434.0,STARLINK-5621,PAYLOAD,2024-03-12 04:13:44,14.98332021,0.0002868,70.0015,138.8042,265.925,94.1581,0.00011819,1.318e-05,0.0,0 STARLINK-5621,1 55434U 23014AV  24072.17620773  .00001318  00000-0  11819-3 0  9995,2 55434  70.0015 138.8042 0002868 265.9250  94.1581 14.98332021 61159,6950.187,96.107,574.045,570.058,0.0
55434.0,STARLINK-5621,PAYLOAD,2024-03-12 21:51:13,14.98330547,0.0003054,69.9995,136.9506,268.2744,91.8065,0.00019885,2.28e-05,0.0,0 STARLINK-5621,1 55434U 23014AV  24072.91056744  .00002280  00000-0  19885-3 0  9998,2 55434  69.9995 136.9506 0003054 268.2744  91.8065 14.98330547 62208,6950.191,96.107,574.179,569.934,0.0
55434.0,STARLINK-5621,PAYLOAD,2024-03-13 04:15:45,14.98330609,0.0003018,69.9995,136.2772,269.0959,90.9854,0.00016001,1.817e-05,0.0,0 STARLINK-5621,1 55434U 23014AV  24073.17760740  .00001817  00000-0  16001-3 0  9997,2 55434  69.9995 136.2772 0003018 269.0959  90.9854 14.98330609 61308,6950.191,96.107,574.154,569.958,0.0
55434.0,STARLINK-5621,PAYLOAD,2024-03-13 12:16:25,14.98335026,0.0003081,69.9995,135.436,269.8301,90.2505,0.00016113,1.83e-05,0.0,0 STARLINK-5621,1 55434U 23014AV  24073.51140533  .00001830  00000-0  16113-3 0  9996,2 55434  69.9995 135.4360 0003081 269.8301  90.2505 14.98335026 62294,6950.177,96.107,574.184,569.901,0.0
55434.0,STARLINK-5621,PAYLOAD,2024-03-14 04:17:46,14.98324889,0.0003102,69.9996,133.7526,268.2663,91.8141,0.00026292,3.045e-05,0.0,0 STARLINK-5621,1 55434U 23014AV  24074.17900818  .00003045  00000-0  26292-3 0  9998,2 55434  69.9996 133.7526 0003102 268.2663  91.8141 14.98324889 61453,6950.209,96.107,574.23,569.918,0.0
55434.0,STARLINK-5621,PAYLOAD,2024-03-14 05:53:54,14.98333246,0.0003052,69.9994,133.5844,269.9466,90.1343,9.1168e-05,9.95e-06,0.0,0 STARLINK-5621,1 55434U 23014AV  24074.24576658  .00000995  00000-0  91168-4 0  9993,2 55434  69.9994 133.5844 0003052 269.9466  90.1343 14.98333246 62404,6950.183,96.107,574.169,569.927,0.0
55434.0,STARLINK-5621,PAYLOAD,2024-03-14 12:18:26,14.98334546,0.0003043,69.9994,132.9111,270.0849,89.9961,9.0674e-05,9.89e-06,0.0,0 STARLINK-5621,1 55434U 23014AV  24074.51280456  .00000989  00000-0  90674-4 0  9995,2 55434  69.9994 132.9111 0003043 270.0849  89.9961 14.98334546 62442,6950.179,96.107,574.159,569.929,0.0
55434.0,STARLINK-5621,PAYLOAD,2024-03-15 04:19:47,14.9833259,0.0003027,69.9994,131.228,270.283,89.7982,6.4092e-05,6.72e-06,0.0,0 STARLINK-5621,1 55434U 23014AV  24075.18040525  .00000672  00000-0  64092-4 0  9994,2 55434  69.9994 131.2280 0003027 270.2830  89.7982 14.98332590 61600,6950.185,96.107,574.154,569.946,0.0
55434.0,STARLINK-5621,PAYLOAD,2024-03-15 12:20:27,14.98332917,0.000298,69.9995,130.3868,269.8048,90.2769,4.4669e-05,4.4e-06,0.0,0 STARLINK-5621,1 55434U 23014AV  24075.51420468  .00000440  00000-0  44669-4 0  9990,2 55434  69.9995 130.3868 0002980 269.8048  90.2769 14.98332917 62597,6950.184,96.107,574.12,569.978,0.0
55434.0,STARLINK-5621,PAYLOAD,2024-03-16 04:21:48,14.98330903,0.0002878,69.9996,128.704,268.2091,91.8738,5.0855e-05,5.14e-06,0.0,0 STARLINK-5621,1 55434U 23014AV  24076.18180560  .00000514  00000-0  50855-4 0  9996,2 55434  69.9996 128.7040 0002878 268.2091  91.8738 14.98330903 61751,6950.19,96.107,574.055,570.055,0.0
55434.0,STARLINK-5621,PAYLOAD,2024-03-16 13:58:36,14.98331254,0.000292,69.9993,127.6938,268.9383,91.1441,4.2407e-05,4.13e-06,0.0,0 STARLINK-5621,1 55434U 23014AV  24076.58236525  .00000413  00000-0  42407-4 0  9995,2 55434  69.9993 127.6938 0002920 268.9383  91.1441 14.98331254 62756,6950.189,96.107,574.083,570.025,0.0
55434.0,STARLINK-5621,PAYLOAD,2024-03-17 04:23:48,14.9833093,0.000291,69.9992,126.1789,267.3152,92.7674,6.3643e-05,6.66e-06,0.0,0 STARLINK-5621,1 55434U 23014AV  24077.18320459  .00000666  00000-0  63643-4 0  9997,2 55434  69.9992 126.1789 0002910 267.3152  92.7674 14.98330930 61900,6950.19,96.107,574.078,570.033,0.0
55434.0,STARLINK-5621,PAYLOAD,2024-03-17 12:24:29,14.98331075,0.0002921,69.9991,125.3372,266.493,93.5894,5.6352e-05,5.79e-06,0.0,0 STARLINK-5621,1 55434U 23014AV  24077.51700425  .00000579  00000-0  56352-4 0  9991,2 55434  69.9991 125.3372 0002921 266.4930  93.5894 14.98331075 62897,6950.19,96.107,574.085,570.024,0.0
55434.0,STARLINK-5621,PAYLOAD,2024-03-18 04:25:49,14.98330596,0.0002945,69.9989,123.6536,265.6906,94.3916,6.4827e-05,6.81e-06,0.0,0 STARLINK-5621,1 55434U 23014AV  24078.18460398  .00000681  00000-0  64827-4 0  9997,2 55434  69.9989 123.6536 0002945 265.6906  94.3916 14.98330596 62056,6950.191,96.107,574.103,570.009,0.0
55434.0,STARLINK-5621,PAYLOAD,2024-03-18 12:26:30,14.98331888,0.0002937,69.9989,122.8121,265.3657,94.7166,7.4131e-05,7.92e-06,0.0,0 STARLINK-5621,1 55434U 23014AV  24078.51840293  .00000792  00000-0  74131-4 0  9992,2 55434  69.9989 122.8121 0002937 265.3657  94.7166 14.98331888 63044,6950.187,96.107,574.093,570.011,0.0
55434.0,STARLINK-5621,PAYLOAD,2024-03-19 10:52:22,14.98333384,0.0002814,69.9992,120.4558,260.8909,99.1931,8.1097e-05,8.75e-06,0.0,0 STARLINK-5621,1 55434U 23014AV  24079.45304161  .00000875  00000-0  81097-4 0  9996,2 55434  69.9992 120.4558 0002814 260.8909  99.1931 14.98333384 63187,6950.182,96.107,574.003,570.092,0.0
55434.0,STARLINK-5621,PAYLOAD,2024-03-19 20:29:10,14.98336612,0.0002833,69.9992,119.4459,261.2155,98.8683,8.9511e-05,9.75e-06,0.0,0 STARLINK-5621,1 55434U 23014AV  24079.85359853  .00000975  00000-0  89511-4 0  9998,2 55434  69.9992 119.4459 0002833 261.2155  98.8683 14.98336612 62304,6950.172,96.107,574.006,570.068,0.0
55434.0,STARLINK-5621,PAYLOAD,2024-03-20 12:30:31,14.98337523,0.0002969,69.9987,117.7616,270.187,89.8949,0.00010042,1.106e-05,0.0,0 STARLINK-5621,1 55434U 23014AV  24080.52119749  .00001106  00000-0  10042-3 0  9991,2 55434  69.9987 117.7616 0002969 270.1870  89.8949 14.98337523 63349,6950.17,96.107,574.098,569.971,0.0
55434.0,STARLINK-5621,PAYLOAD,2024-03-21 04:31:52,14.98328013,0.0002908,69.9987,116.0784,270.0365,90.0461,-1.0526e-05,-2.19e-06,0.0,0 STARLINK-5621,1 55434U 23014AV  24081.18880585 -.00000219  00000-0 -10526-4 0  9991,2 55434  69.9987 116.0784 0002908 270.0365  90.0461 14.98328013 62502,6950.199,96.107,574.085,570.043,0.0
55434.0,STARLINK-5621,PAYLOAD,2024-03-21 12:32:33,14.98330157,0.0002898,69.9987,115.2367,270.0401,90.0426,1.174e-05,4.7e-07,0.0,0 STARLINK-5621,1 55434U 23014AV  24081.52260421  .00000047  00000-0  11740-4 0  9996,2 55434  69.9987 115.2367 0002898 270.0401  90.0426 14.98330157 63491,6950.192,96.107,574.072,570.043,0.0
55434.0,STARLINK-5621,PAYLOAD,2024-03-22 04:33:53,14.98332017,0.0002857,69.9988,113.5534,271.4544,88.6288,7.7242e-05,8.29e-06,0.0,0 STARLINK-5621,1 55434U 23014AV  24082.19020150  .00000829  00000-0  77242-4 0  9990,2 55434  69.9988 113.5534 0002857 271.4544  88.6288 14.98332017 62650,6950.187,96.107,574.037,570.066,0.0
55434.0,STARLINK-5621,PAYLOAD,2024-03-22 10:58:25,14.98336202,0.0002825,69.9989,112.88,272.6942,87.3894,8.0359e-05,8.66e-06,0.0,0 STARLINK-5621,1 55434U 23014AV  24082.45723860  .00000866  00000-0  80359-4 0  9991,2 55434  69.9989 112.8800 0002825 272.6942  87.3894 14.98336202 63637,6950.174,96.107,574.002,570.075,0.0
55434.0,STARLINK-5621,PAYLOAD,2024-03-23 04:35:54,14.98324831,0.0002749,69.9989,111.0293,266.3308,93.7536,5.9814e-05,6.21e-06,0.0,0 STARLINK-5621,1 55434U 23014AV  24083.19160743  .00000621  00000-0  59814-4 0  9999,2 55434  69.9989 111.0293 0002749 266.3308  93.7536 14.98324831 62802,6950.209,96.107,573.984,570.163,0.0
55434.0,STARLINK-5621,PAYLOAD,2024-03-23 19:01:07,14.98340074,0.000279,69.9998,109.512,272.4569,87.6271,-0.0001173,-1.493e-05,0.0,0 STARLINK-5621,1 55434U 23014AV  24083.79244279 -.00001493  00000-0 -11730-3 0  9996,2 55434  69.9998 109.5120 0002790 272.4569  87.6271 14.98340074 62890,6950.162,96.106,573.966,570.088,0.0
55434.0,STARLINK-5621,PAYLOAD,2024-03-24 11:02:26,14.98344229,0.0003118,69.9984,107.8299,269.0393,91.0409,0.00015341,1.739e-05,0.0,0 STARLINK-5621,1 55434U 23014AV  24084.46003325  .00001739  00000-0  15341-3 0  9999,2 55434  69.9984 107.8299 0003118 269.0393  91.0409 14.98344229 63939,6950.149,96.106,574.181,569.847,0.0
55434.0,STARLINK-5621,PAYLOAD,2024-03-25 04:39:56,14.98335368,0.0003035,69.9998,105.9783,268.5023,91.5789,0.00015421,1.748e-05,0.0,0 STARLINK-5621,1 55434U 23014AV  24085.19439898  .00001748  00000-0  15421-3 0  9997,2 55434  69.9998 105.9783 0003035 268.5023  91.5789 14.98335368 63102,6950.176,96.107,574.151,569.932,0.0
55434.0,STARLINK-5621,PAYLOAD,2024-03-25 19:05:09,14.98328709,0.0003053,69.9989,104.4626,271.5263,88.5546,7.9669e-05,8.58e-06,0.0,0 STARLINK-5621,1 55434U 23014AV  24085.79524399  .00000858  00000-0  79669-4 0  9990,2 55434  69.9989 104.4626 0003053 271.5263  88.5546 14.98328709 63199,6950.197,96.107,574.184,569.94,0.0
